EUTELSAT 7A             
1 28187U 04008A   25293.09597590  .00000108  00000+0  00000+0 0  9990
2 28187   5.2182  74.8590 0001614 187.3879  21.9321  1.00273874 78942
EUTELSAT 174A           
1 28924U 05052A   25293.08670255  .00000015  00000+0  00000+0 0  9995
2 28924   3.6087  79.4883 0006308 132.9935  21.6122  1.00275071 49920
EUTELSAT HOTBIRD 13B    
1 29270U 06032A   25293.13725394  .00000158  00000+0  00000+0 0  9998
2 29270   1.0379  84.8292 0004000 117.2686 269.2650  1.00271506 44909
EUTELSAT HOTBIRD 13C    
1 33459U 08065A   25293.12110934 -.00000097  00000+0  00000+0 0  9990
2 33459   2.3300  82.0142 0005847 148.0314 189.9158  1.00272246 44931
EUTELSAT 36B            
1 36101U 09065A   25293.15461677  .00000113  00000+0  00000+0 0  9992
2 36101   0.0618  38.7689 0006059 175.5499 280.7256  1.00274190 58309
EUTELSAT KA-SAT 9A      
1 37258U 10069A   25293.11622252  .00000063  00000+0  00000+0 0  9990
2 37258   0.0603 317.7365 0002522 217.8228 264.1454  1.00269916 41600
EUTELSAT 7 WEST A       
1 37816U 11051A   25293.14836670 -.00000058  00000+0  00000+0 0  9991
2 37816   0.0859  41.3164 0006347 163.7323 229.9412  1.00272153 51470
EUTELSAT 16A            
1 37836U 11057A   25293.12674272  .00000106  00000+0  00000+0 0  9998
2 37836   0.0667  18.0580 0005531 194.4324 238.0060  1.00273560  4929
